[{"OBJECT_NAME":"STARLINK-5204","OBJECT_ID":"2022-136BC","EPOCH":"2026-03-09T23:47:56.423328","MEAN_MOTION":15.08829767,"ECCENTRICITY":0.00014474,"INCLINATION":53.2189,"RA_OF_ASC_NODE":317.5294,"ARG_OF_PERICENTER":91.0815,"MEAN_ANOMALY":269.0343,"EPHEMERIS_TYPE":0,"CLASSIFICATION_TYPE":"U","NORAD_CAT_ID":54101,"ELEMENT_SET_NO":999,"REV_AT_EPOCH":18724,"BSTAR":-0.00010614396,"MEAN_MOTION_DOT":-1.976e-5,"MEAN_MOTION_DDOT":0},{"OBJECT_NAME":"KUIPER-00148","OBJECT_ID":"2025-217H","EPOCH":"2026-03-09T06:36:19.446048","MEAN_MOTION":15.09536529,"ECCENTRICITY":0.00081087,"INCLINATION":51.8794,"RA_OF_ASC_NODE":26.5769,"ARG_OF_PERICENTER":351.8096,"MEAN_ANOMALY":8.2745,"EPHEMERIS_TYPE":0,"CLASSIFICATION_TYPE":"U","NORAD_CAT_ID":65769,"ELEMENT_SET_NO":999,"REV_AT_EPOCH":2507,"BSTAR":0.00098730243,"MEAN_MOTION_DOT":0.00015783,"MEAN_MOTION_DDOT":0}]
